ONEWEB-0247             
1 48777U 21045L   23365.75812657  .00001745  00000+0  45988-2 0  9997
2 48777  87.9028  78.0629 0002694 138.3117 221.8219 13.15552287127415
ONEWEB-0245             
1 48778U 21045M   23365.75339657 -.00000034  00000+0 -12328-3 0  9997
2 48778  87.8994  78.0621 0002128 105.4573 254.6792 13.15548945127384
ONEWEB-0229             
1 48779U 21045N   23365.74863410  .00000080  00000+0  17720-3 0  9996
2 48779  87.8995  78.0544 0001789 112.7768 247.3551 13.15547449127413
ONEWEB-0228             
1 48780U 21045P   23365.23128491 -.00000040  00000+0 -14087-3 0  9996
2 48780  87.8992  78.1372 0001706 106.2951 253.8367 13.15543217127262
ONEWEB-0232             
1 48781U 21045Q   23365.14808864 -.00000167  00000+0 -47822-3 0  9999
2 48781  87.8985  78.1823 0001814 117.6054 242.5261 13.15546892127569
ONEWEB-0231             
1 48782U 21045R   23365.27803102  .00000217  00000+0  54176-3 0  9998
2 48782  87.9002  78.1607 0001891 113.3446 246.7884 13.15547316127293
ONEWEB-0234             
1 48783U 21045S   23365.75418124 -.00000025  00000+0 -99216-4 0  9992
2 48783  87.8996  78.0377 0002568  71.6994 288.4416 13.15546982127487
ONEWEB-0238             
1 48784U 21045T   23365.17583501  .00000012  00000+0 -23795-5 0  9996
2 48784  87.8993  78.1721 0001767  99.8385 260.2945 13.15551735127303
